ONEWEB-0627             
1 55168U 23004AE  25215.57291099  .00000026  00000+0  32483-4 0  9992
2 55168  87.9031  69.1040 0001473 105.2133 254.9161 13.17648448125759
ONEWEB-0628             
1 55169U 23004AF  25215.49505846 -.00000291  00000+0 -84310-3 0  9993
2 55169  87.8860  53.7990 0001783 112.5500 247.5817 13.12442062126368
ONEWEB-0629             
1 55170U 23004AG  25215.54843655 -.00000012  00000+0 -63529-4 0  9995
2 55170  87.9040  69.0996 0002022  93.0857 267.0506 13.17649484125758
ONEWEB-0631             
1 55171U 23004AH  25215.48209898 -.00000008  00000+0 -52108-4 0  9990
2 55171  87.9124  38.5373 0001301  85.8001 274.3280 13.18686786127806
ONEWEB-0709             
1 55172U 23004AJ  25215.19938356 -.00000522  00000+0 -15086-2 0  9990
2 55172  87.8808  84.4716 0001658  47.2662 312.8605 13.11416465124192
ONEWEB-0710             
1 55173U 23004AK  25215.10716033 -.00000086  00000+0 -25501-3 0  9997
2 55173  87.9030  69.1868 0001653  90.2937 269.8384 13.17648121125690
ONEWEB-0711             
1 55174U 23004AL  25215.17057857  .00000509  00000+0  14015-2 0  9992
2 55174  87.8799  84.4459 0001425 107.4057 252.7227 13.11416975124150
ONEWEB-0713             
1 55175U 23004AM  25215.18921920 -.00000214  00000+0 -64028-3 0  9990
2 55175  87.8798  84.4499 0001574  88.4982 271.6326 13.11414003124143
ONEWEB-0715             
1 55176U 23004AN  25215.41302625  .00000131  00000+0  33454-3 0  9997
2 55176  87.8795  84.4061 0001432  74.0138 286.1147 13.11415456124216
ONEWEB-0716             
1 55177U 23004AP  25215.40415171 -.00000006  00000+0 -48693-4 0  9993
2 55177  87.9031  69.1271 0001982  82.7321 277.4035 13.17650451125733
ONEWEB-0717             
1 55178U 23004AQ  25215.53915124  .00000023  00000+0  25137-4 0  9996
2 55178  87.9044  69.0584 0001307 102.8650 257.2628 13.17650248125800
ONEWEB-0719             
1 55179U 23004AR  25215.09365997  .00000046  00000+0  85193-4 0  9998
2 55179  87.9032  69.1320 0001991  86.7602 273.3758 13.17647674125692
ONEWEB-0530             
1 55796U 23029A   25215.36646845  .00000075  00000+0  15198-3 0  9993
2 55796  87.9296 337.8071 0002005 114.3376 245.7967 13.20772634119192
ONEWEB-0534             
1 55797U 23029B   25215.35384084 -.00000819  00000+0 -20467-2 0  9999
2 55797  87.9291 337.8163 0002014  97.9583 262.1779 13.20775687119191
ONEWEB-0556             
1 55798U 23029C   25215.36016352  .00000039  00000+0  63751-4 0  9998
2 55798  87.9294 337.8081 0002700 106.9044 253.2386 13.20772606119192
ONEWEB-0562             
1 55799U 23029D   25215.42330632  .00000019  00000+0  15547-4 0  9994
2 55799  87.9289 337.7870 0002524 120.4556 239.6827 13.20771735119207
ONEWEB-0563             
1 55800U 23029E   25215.41699920 -.00000060  00000+0 -17996-3 0  9991
2 55800  87.9302 337.8053 0002123  96.7006 263.4369 13.20772361119190
