[{"OBJECT_NAME":"ONEWEB-0627","OBJECT_ID":"2023-004AE","EPOCH":"2025-08-03T13:44:59.509536","MEAN_MOTION":13.17648448,"ECCENTRICITY":0.0001473,"INCLINATION":87.9031,"RA_OF_ASC_NODE":69.104,"ARG_OF_PERICENTER":105.2133,"MEAN_ANOMALY":254.9161,"EPHEMERIS_TYPE":0,"CLASSIFICATION_TYPE":"U","NORAD_CAT_ID":55168,"ELEMENT_SET_NO":999,"REV_AT_EPOCH":12575,"BSTAR":3.2483e-5,"MEAN_MOTION_DOT":2.6e-7,"MEAN_MOTION_DDOT":0},{"OBJECT_NAME":"ONEWEB-0628","OBJECT_ID":"2023-004AF","EPOCH":"2025-08-03T11:52:53.050944","MEAN_MOTION":13.12442062,"ECCENTRICITY":0.0001783,"INCLINATION":87.886,"RA_OF_ASC_NODE":53.799,"ARG_OF_PERICENTER":112.55,"MEAN_ANOMALY":247.5817,"EPHEMERIS_TYPE":0,"CLASSIFICATION_TYPE":"U","NORAD_CAT_ID":55169,"ELEMENT_SET_NO":999,"REV_AT_EPOCH":12636,"BSTAR":-0.0008431,"MEAN_MOTION_DOT":-2.91e-6,"MEAN_MOTION_DDOT":0},{"OBJECT_NAME":"ONEWEB-0629","OBJECT_ID":"2023-004AG","EPOCH":"2025-08-03T13:09:44.917920","MEAN_MOTION":13.17649484,"ECCENTRICITY":0.0002022,"INCLINATION":87.904,"RA_OF_ASC_NODE":69.0996,"ARG_OF_PERICENTER":93.0857,"MEAN_ANOMALY":267.0506,"EPHEMERIS_TYPE":0,"CLASSIFICATION_TYPE":"U","NORAD_CAT_ID":55170,"ELEMENT_SET_NO":999,"REV_AT_EPOCH":12575,"BSTAR":-6.3529e-5,"MEAN_MOTION_DOT":-1.2e-7,"MEAN_MOTION_DDOT":0},{"OBJECT_NAME":"ONEWEB-0631","OBJECT_ID":"2023-004AH","EPOCH":"2025-08-03T11:34:13.351872","MEAN_MOTION":13.18686786,"ECCENTRICITY":0.0001301,"INCLINATION":87.9124,"RA_OF_ASC_NODE":38.5373,"ARG_OF_PERICENTER":85.8001,"MEAN_ANOMALY":274.328,"EPHEMERIS_TYPE":0,"CLASSIFICATION_TYPE":"U","NORAD_CAT_ID":55171,"ELEMENT_SET_NO":999,"REV_AT_EPOCH":12780,"BSTAR":-5.2108e-5,"MEAN_MOTION_DOT":-8.0e-8,"MEAN_MOTION_DDOT":0},{"OBJECT_NAME":"ONEWEB-0709","OBJECT_ID":"2023-004AJ","EPOCH":"2025-08-03T04:47:06.739584","MEAN_MOTION":13.11416465,"ECCENTRICITY":0.0001658,"INCLINATION":87.8808,"RA_OF_ASC_NODE":84.4716,"ARG_OF_PERICENTER":47.2662,"MEAN_ANOMALY":312.8605,"EPHEMERIS_TYPE":0,"CLASSIFICATION_TYPE":"U","NORAD_CAT_ID":55172,"ELEMENT_SET_NO":999,"REV_AT_EPOCH":12419,"BSTAR":-0.0015086,"MEAN_MOTION_DOT":-5.22e-6,"MEAN_MOTION_DDOT":0},{"OBJECT_NAME":"ONEWEB-0710","OBJECT_ID":"2023-004AK","EPOCH":"2025-08-03T02:34:18.652512","MEAN_MOTION":13.17648121,"ECCENTRICITY":0.0001653,"INCLINATION":87.903,"RA_OF_ASC_NODE":69.1868,"ARG_OF_PERICENTER":90.2937,"MEAN_ANOMALY":269.8384,"EPHEMERIS_TYPE":0,"CLASSIFICATION_TYPE":"U","NORAD_CAT_ID":55173,"ELEMENT_SET_NO":999,"REV_AT_EPOCH":12569,"BSTAR":-0.00025501,"MEAN_MOTION_DOT":-8.6e-7,"MEAN_MOTION_DDOT":0},{"OBJECT_NAME":"ONEWEB-0711","OBJECT_ID":"2023-004AL","EPOCH":"2025-08-03T04:05:37.988448","MEAN_MOTION":13.11416975,"ECCENTRICITY":0.0001425,"INCLINATION":87.8799,"RA_OF_ASC_NODE":84.4459,"ARG_OF_PERICENTER":107.4057,"MEAN_ANOMALY":252.7227,"EPHEMERIS_TYPE":0,"CLASSIFICATION_TYPE":"U","NORAD_CAT_ID":55174,"ELEMENT_SET_NO":999,"REV_AT_EPOCH":12415,"BSTAR":0.0014015,"MEAN_MOTION_DOT":5.09e-6,"MEAN_MOTION_DDOT":0},{"OBJECT_NAME":"ONEWEB-0713","OBJECT_ID":"2023-004AM","EPOCH":"2025-08-03T04:32:28.538880","MEAN_MOTION":13.11414003,"ECCENTRICITY":0.0001574,"INCLINATION":87.8798,"RA_OF_ASC_NODE":84.4499,"ARG_OF_PERICENTER":88.4982,"MEAN_ANOMALY":271.6326,"EPHEMERIS_TYPE":0,"CLASSIFICATION_TYPE":"U","NORAD_CAT_ID":55175,"ELEMENT_SET_NO":999,"REV_AT_EPOCH":12414,"BSTAR":-0.00064028,"MEAN_MOTION_DOT":-2.14e-6,"MEAN_MOTION_DDOT":0},{"OBJECT_NAME":"ONEWEB-0715","OBJECT_ID":"2023-004AN","EPOCH":"2025-08-03T09:54:45.468000","MEAN_MOTION":13.11415456,"ECCENTRICITY":0.0001432,"INCLINATION":87.8795,"RA_OF_ASC_NODE":84.4061,"ARG_OF_PERICENTER":74.0138,"MEAN_ANOMALY":286.1147,"EPHEMERIS_TYPE":0,"CLASSIFICATION_TYPE":"U","NORAD_CAT_ID":55176,"ELEMENT_SET_NO":999,"REV_AT_EPOCH":12421,"BSTAR":0.00033454,"MEAN_MOTION_DOT":1.31e-6,"MEAN_MOTION_DDOT":0},{"OBJECT_NAME":"ONEWEB-0716","OBJECT_ID":"2023-004AP","EPOCH":"2025-08-03T09:41:58.707744","MEAN_MOTION":13.17650451,"ECCENTRICITY":0.0001982,"INCLINATION":87.9031,"RA_OF_ASC_NODE":69.1271,"ARG_OF_PERICENTER":82.7321,"MEAN_ANOMALY":277.4035,"EPHEMERIS_TYPE":0,"CLASSIFICATION_TYPE":"U","NORAD_CAT_ID":55177,"ELEMENT_SET_NO":999,"REV_AT_EPOCH":12573,"BSTAR":-4.8693e-5,"MEAN_MOTION_DOT":-6.0e-8,"MEAN_MOTION_DDOT":0},{"OBJECT_NAME":"ONEWEB-0717","OBJECT_ID":"2023-004AQ","EPOCH":"2025-08-03T12:56:22.667136","MEAN_MOTION":13.17650248,"ECCENTRICITY":0.0001307,"INCLINATION":87.9044,"RA_OF_ASC_NODE":69.0584,"ARG_OF_PERICENTER":102.865,"MEAN_ANOMALY":257.2628,"EPHEMERIS_TYPE":0,"CLASSIFICATION_TYPE":"U","NORAD_CAT_ID":55178,"ELEMENT_SET_NO":999,"REV_AT_EPOCH":12580,"BSTAR":2.5137e-5,"MEAN_MOTION_DOT":2.3e-7,"MEAN_MOTION_DDOT":0},{"OBJECT_NAME":"ONEWEB-0719","OBJECT_ID":"2023-004AR","EPOCH":"2025-08-03T02:14:52.221408","MEAN_MOTION":13.17647674,"ECCENTRICITY":0.0001991,"INCLINATION":87.9032,"RA_OF_ASC_NODE":69.132,"ARG_OF_PERICENTER":86.7602,"MEAN_ANOMALY":273.3758,"EPHEMERIS_TYPE":0,"CLASSIFICATION_TYPE":"U","NORAD_CAT_ID":55179,"ELEMENT_SET_NO":999,"REV_AT_EPOCH":12569,"BSTAR":8.5193e-5,"MEAN_MOTION_DOT":4.6e-7,"MEAN_MOTION_DDOT":0},{"OBJECT_NAME":"ONEWEB-0530","OBJECT_ID":"2023-029A","EPOCH":"2025-08-03T08:47:42.874080","MEAN_MOTION":13.20772634,"ECCENTRICITY":0.0002005,"INCLINATION":87.9296,"RA_OF_ASC_NODE":337.8071,"ARG_OF_PERICENTER":114.3376,"MEAN_ANOMALY":245.7967,"EPHEMERIS_TYPE":0,"CLASSIFICATION_TYPE":"U","NORAD_CAT_ID":55796,"ELEMENT_SET_NO":999,"REV_AT_EPOCH":11919,"BSTAR":0.00015198,"MEAN_MOTION_DOT":7.5e-7,"MEAN_MOTION_DDOT":0},{"OBJECT_NAME":"ONEWEB-0534","OBJECT_ID":"2023-029B","EPOCH":"2025-08-03T08:29:31.848576","MEAN_MOTION":13.20775687,"ECCENTRICITY":0.0002014,"INCLINATION":87.9291,"RA_OF_ASC_NODE":337.8163,"ARG_OF_PERICENTER":97.9583,"MEAN_ANOMALY":262.1779,"EPHEMERIS_TYPE":0,"CLASSIFICATION_TYPE":"U","NORAD_CAT_ID":55797,"ELEMENT_SET_NO":999,"REV_AT_EPOCH":11919,"BSTAR":-0.0020467,"MEAN_MOTION_DOT":-8.19e-6,"MEAN_MOTION_DDOT":0},{"OBJECT_NAME":"ONEWEB-0556","OBJECT_ID":"2023-029C","EPOCH":"2025-08-03T08:38:38.128128","MEAN_MOTION":13.20772606,"ECCENTRICITY":0.00027,"INCLINATION":87.9294,"RA_OF_ASC_NODE":337.8081,"ARG_OF_PERICENTER":106.9044,"MEAN_ANOMALY":253.2386,"EPHEMERIS_TYPE":0,"CLASSIFICATION_TYPE":"U","NORAD_CAT_ID":55798,"ELEMENT_SET_NO":999,"REV_AT_EPOCH":11919,"BSTAR":6.3751e-5,"MEAN_MOTION_DOT":3.9e-7,"MEAN_MOTION_DDOT":0},{"OBJECT_NAME":"ONEWEB-0562","OBJECT_ID":"2023-029D","EPOCH":"2025-08-03T10:09:33.666048","MEAN_MOTION":13.20771735,"ECCENTRICITY":0.0002524,"INCLINATION":87.9289,"RA_OF_ASC_NODE":337.787,"ARG_OF_PERICENTER":120.4556,"MEAN_ANOMALY":239.6827,"EPHEMERIS_TYPE":0,"CLASSIFICATION_TYPE":"U","NORAD_CAT_ID":55799,"ELEMENT_SET_NO":999,"REV_AT_EPOCH":11920,"BSTAR":1.5547e-5,"MEAN_MOTION_DOT":1.9e-7,"MEAN_MOTION_DDOT":0},{"OBJECT_NAME":"ONEWEB-0563","OBJECT_ID":"2023-029E","EPOCH":"2025-08-03T10:00:28.730880","MEAN_MOTION":13.20772361,"ECCENTRICITY":0.0002123,"INCLINATION":87.9302,"RA_OF_ASC_NODE":337.8053,"ARG_OF_PERICENTER":96.7006,"MEAN_ANOMALY":263.4369,"EPHEMERIS_TYPE":0,"CLASSIFICATION_TYPE":"U","NORAD_CAT_ID":55800,"ELEMENT_SET_NO":999,"REV_AT_EPOCH":11919,"BSTAR":-0.00017996,"MEAN_MOTION_DOT":-6.0e-7,"MEAN_MOTION_DDOT":0}]
